{
    "links": {
        "self": "http://www.neowsapp.com/rest/v1/neo/3713068?api_key=iIulBulltgU6a56xZRHN4H3l9WmuAYTsLGpBGhQ2"
    },
    "id": "3713068",
    "neo_reference_id": "3713068",
    "name": "(2015 DO223)",
    "designation": "2015 DO223",
    "nasa_jpl_url": "http://ssd.jpl.nasa.gov/sbdb.cgi?sstr=3713068",
    "absolute_magnitude_h": 23.4,
    "estimated_diameter": {
        "kilometers": {
            "estimated_diameter_min": 0.0555334912,
            "estimated_diameter_max": 0.1241766613
        },
        "meters": {
            "estimated_diameter_min": 55.5334911581,
            "estimated_diameter_max": 124.1766612574
        },
        "miles": {
            "estimated_diameter_min": 0.0345069009,
            "estimated_diameter_max": 0.0771597762
        },
        "feet": {
            "estimated_diameter_min": 182.1964991311,
            "estimated_diameter_max": 407.4037573197
        }
    },
    "is_potentially_hazardous_asteroid": false,
    "close_approach_data": [
        {
            "close_approach_date": "2015-03-21",
            "close_approach_date_full": "2015-Mar-21 03:41",
            "epoch_date_close_approach": 1426909260000,
            "relative_velocity": {
                "kilometers_per_second": "19.0526633379",
                "kilometers_per_hour": "68589.5880163518",
                "miles_per_hour": "42618.9026204937"
            },
            "miss_distance": {
                "astronomical": "0.0275989907",
                "lunar": "10.7360073823",
                "kilometers": "4128750.222869809",
                "miles": "2565486.4253050042"
            },
            "orbiting_body": "Earth"
        },
        {
            "close_approach_date": "2084-03-25",
            "close_approach_date_full": "2084-Mar-25 20:26",
            "epoch_date_close_approach": 3604854360000,
            "relative_velocity": {
                "kilometers_per_second": "6.5060765605",
                "kilometers_per_hour": "23421.8756179242",
                "miles_per_hour": "14553.4426582596"
            },
            "miss_distance": {
                "astronomical": "1.5154812409",
                "lunar": "589.5222027101",
                "kilometers": "226712765.663596883",
                "miles": "140872780.2257396654"
            },
            "orbiting_body": "Juptr"
        }
    ],
    "orbital_data": {
        "orbit_id": "6",
        "orbit_determination_date": "2017-04-06 08:35:17",
        "first_observation_date": "2015-02-23",
        "last_observation_date": "2015-03-18",
        "data_arc_in_days": 23,
        "observations_used": 24,
        "orbit_uncertainty": "8",
        "minimum_orbit_intersection": ".0274189",
        "jupiter_tisserand_invariant": "3.186",
        "epoch_osculation": "2457081.5",
        "eccentricity": ".6961991919598272",
        "semi_major_axis": "2.330510951216334",
        "inclination": "7.105575511608664",
        "ascending_node_longitude": "12.30488088107913",
        "orbital_period": "1299.496604170787",
        "perihelion_distance": ".7080111101259939",
        "perihelion_argument": "239.5688367743673",
        "aphelion_distance": "3.953010792306673",
        "perihelion_time": "2457145.257510588706",
        "mean_anomaly": "342.3372344812087",
        "mean_motion": ".2770303507100867",
        "equinox": "J2000",
        "orbit_class": {
            "orbit_class_type": "APO",
            "orbit_class_description": "Near-Earth asteroid orbits which cross the Earth’s orbit similar to that of 1862 Apollo",
            "orbit_class_range": "a (semi-major axis) > 1.0 AU; q (perihelion) < 1.017 AU"
        }
    },
    "is_sentry_object": false
}